ICEYE-X48               
1 63253U 25052AV  26068.70765702  .00004541  00000+0  39589-3 0  9999
2 63253  97.6979 322.3976 0002688 141.7433 218.3980 14.97356709 53782
STARLINK-36225          
1 67207U 25304R   26068.69187076  .00004536  00000+0  38756-3 0  9991
2 67207  70.0030 174.5024 0003352 265.5756  94.5020 14.98339003 13886
