[{"OBJECT_NAME":"ICEYE-X48","OBJECT_ID":"2025-052AV","EPOCH":"2026-03-09T16:59:01.566528","MEAN_MOTION":14.97356709,"ECCENTRICITY":0.00026878,"INCLINATION":97.6979,"RA_OF_ASC_NODE":322.3976,"ARG_OF_PERICENTER":141.7433,"MEAN_ANOMALY":218.398,"EPHEMERIS_TYPE":0,"CLASSIFICATION_TYPE":"U","NORAD_CAT_ID":63253,"ELEMENT_SET_NO":999,"REV_AT_EPOCH":5378,"BSTAR":0.00039588576,"MEAN_MOTION_DOT":4.541e-5,"MEAN_MOTION_DDOT":0},{"OBJECT_NAME":"STARLINK-36225","OBJECT_ID":"2025-304R","EPOCH":"2026-03-09T16:36:17.634528","MEAN_MOTION":14.98339003,"ECCENTRICITY":0.0003352,"INCLINATION":70.003,"RA_OF_ASC_NODE":174.5024,"ARG_OF_PERICENTER":265.5756,"MEAN_ANOMALY":94.502,"EPHEMERIS_TYPE":0,"CLASSIFICATION_TYPE":"U","NORAD_CAT_ID":67207,"ELEMENT_SET_NO":999,"REV_AT_EPOCH":1388,"BSTAR":0.00038756376,"MEAN_MOTION_DOT":4.536e-5,"MEAN_MOTION_DDOT":0}]
